{
  "norad_id": 55358,
  "name": "STARLINK-5622",
  "history": [
    {
      "epoch": "2026-03-28T22:00:01.999584Z",
      "apogee_km": 501.05697351120034,
      "perigee_km": 498.57609567127383,
      "latitude_deg": -42.0463657176406,
      "longitude_deg": -67.99203657981782,
      "height_km": 511.4729922789852,
      "semi_major_axis_km": 6877.953534591237,
      "eccentricity": 0.00018035,
      "inclination_deg": 42.9997,
      "raan_deg": 194.2292,
      "arg_perigee_deg": 262.0107,
      "mean_anomaly_deg": 356.2133,
      "mean_motion_rev_day": 15.21997383
    },
    {
      "epoch": "2026-03-29T04:00:01.999584Z",
      "apogee_km": 499.87078253217805,
      "perigee_km": 498.1679986098734,
      "latitude_deg": -6.7432058256663705,
      "longitude_deg": 133.48712174644805,
      "height_km": 499.73335734352116,
      "semi_major_axis_km": 6877.156390571025,
      "eccentricity": 0.0001238,
      "inclination_deg": 42.9995,
      "raan_deg": 192.828,
      "arg_perigee_deg": 267.3252,
      "mean_anomaly_deg": 282.4604,
      "mean_motion_rev_day": 15.22262017
    },
    {
      "epoch": "2026-03-30T04:00:01.999584Z",
      "apogee_km": 496.8385185481211,
      "perigee_km": 494.0615893783188,
      "latitude_deg": -42.556313463188346,
      "longitude_deg": -138.6413208078397,
      "height_km": 507.1850573299728,
      "semi_major_axis_km": 6873.58705396322,
      "eccentricity": 0.000202,
      "inclination_deg": 42.9997,
      "raan_deg": 187.2154,
      "arg_perigee_deg": 268.9129,
      "mean_anomaly_deg": 9.7224,
      "mean_motion_rev_day": 15.23447898
    },
    {
      "epoch": "2026-03-30T06:00:02.000160Z",
      "apogee_km": 496.4534907962543,
      "perigee_km": 493.93482732632674,
      "latitude_deg": 11.008688324442648,
      "longitude_deg": -78.92584340363611,
      "height_km": 494.4363441424864,
      "semi_major_axis_km": 6873.33115906129,
      "eccentricity": 0.00018322,
      "inclination_deg": 42.9995,
      "raan_deg": 186.7529,
      "arg_perigee_deg": 275.8471,
      "mean_anomaly_deg": 100.3786,
      "mean_motion_rev_day": 15.23532976
    },
    {
      "epoch": "2026-03-30T14:00:03.000384Z",
      "apogee_km": 495.06660094576,
      "perigee_km": 492.80074180399515,
      "latitude_deg": 30.025226223166737,
      "longitude_deg": -175.05380607436436,
      "height_km": 494.67972662131893,
      "semi_major_axis_km": 6872.070671374878,
      "eccentricity": 0.00016486,
      "inclination_deg": 42.9993,
      "raan_deg": 184.8811,
      "arg_perigee_deg": 308.5956,
      "mean_anomaly_deg": 98.3737,
      "mean_motion_rev_day": 15.23952169
    },
    {
      "epoch": "2026-03-30T22:00:00.999936Z",
      "apogee_km": 493.7352690634998,
      "perigee_km": 491.5166996958433,
      "latitude_deg": 41.99846837696642,
      "longitude_deg": 98.48144703788395,
      "height_km": 496.29455674844206,
      "semi_major_axis_km": 6870.762984379671,
      "eccentricity": 0.00016145,
      "inclination_deg": 42.9997,
      "raan_deg": 183.007,
      "arg_perigee_deg": 304.0908,
      "mean_anomaly_deg": 133.8977,
      "mean_motion_rev_day": 15.24387262
    }
  ]
}